ONEWEB-0331             
1 49198U 21083N   26010.93121954  .00000028  00000+0  37067-4 0  9994
2 49198  87.9181   6.6695 0002043  95.1054 265.0311 13.18684975209283
ONEWEB-0333             
1 49199U 21083P   26010.90961758 -.00000013  00000+0 -71141-4 0  9993
2 49199  87.8981 351.5056 0001793  82.8496 277.2837 13.13469828210269
ONEWEB-0334             
1 49200U 21083Q   26010.79568287 -.00000023  00000+0 -87758-4 0  9995
2 49200  87.9220 305.8553 0001581  42.5858 317.5397 13.20771131216012
ONEWEB-0335             
1 49201U 21083R   26010.98071197  .00000471  00000+0  12558-2 0  9995
2 49201  87.8992 351.4812 0001895  87.9556 272.1790 13.13474840210284
ONEWEB-0336             
1 49202U 21083S   26010.95193719 -.00000137  00000+0 -40898-3 0  9998
2 49202  87.8990 351.4837 0002038  93.7535 266.3827 13.13468274210271
ONEWEB-0337             
1 49203U 21083T   26010.96194659 -.00000261  00000+0 -74847-3 0  9993
2 49203  87.8988 351.4933 0001764  91.5574 268.5757 13.13470708210271
ONEWEB-0338             
1 49204U 21083U   26010.84619208  .00000080  00000+0  16446-3 0  9991
2 49204  87.9224 305.8486 0001589  68.6986 291.4317 13.20773399216047
ONEWEB-0339             
1 49205U 21083V   26010.97055042 -.00000276  00000+0 -79017-3 0  9998
2 49205  87.8993 351.4750 0001611  84.3295 275.8018 13.13470421210258
